TEVEL2-6                
1 63215U 25052F   26068.64958975  .00021046  00000+0  70909-3 0  9996
2 63215  97.4016 325.0381 0004769  95.6604 264.5181 15.30760889 54861
STARLINK-33725          
1 63717U 25087W   26068.70699303  .00046247  00000+0  15649-2 0  9994
2 63717  53.1574 219.3748 0001106  58.2900 301.8208 15.30177870 49203
